STARLINK-4715           
1 53801U 22111AE  26068.84667940 -.00000156  00000+0  83025-5 0  9995
2 53801  53.2170 263.1661 0001367  93.2402 266.8747 15.08838323193845
RAISE-4                 
1 67073U 25297B   26068.97636248  .00005682  00000+0  37087-3 0  9993
2 67073  97.4953 219.2703 0012713  22.7159 337.4629 15.08174958 12933
